STARLINK-4274           
1 52865U 22062AM  26068.25790729 -.00001729  00000+0 -90559-4 0  9993
2 52865  53.2194  26.0591 0001306  83.9235 276.1906 15.08844734205861
SEDNA-2                 
1 63153U 25009DQ  26068.79893845  .00008085  00000+0  49393-3 0  9990
2 63153  97.4615 144.8075 0010309  53.0260 307.1912 15.10492622 63116
